STARLINK-32171          
1 60332U 24136D   26068.33567103  .00002080  00000+0  82380-4 0  9994
2 60332  53.1603  77.0876 0001103  99.5325 260.5801 15.30184303 89611
TOMORROW-S4             
1 62386U 24247K   26068.53305366  .00012677  00000+0  46927-3 0  9990
2 62386  44.9818 117.9996 0004434 210.4078 149.6548 15.27717249 67702
